{
    "links": {
        "self": "http://www.neowsapp.com/rest/v1/neo/3843523?api_key=iIulBulltgU6a56xZRHN4H3l9WmuAYTsLGpBGhQ2"
    },
    "id": "3843523",
    "neo_reference_id": "3843523",
    "name": "(2019 PV1)",
    "designation": "2019 PV1",
    "nasa_jpl_url": "http://ssd.jpl.nasa.gov/sbdb.cgi?sstr=3843523",
    "absolute_magnitude_h": 23.5,
    "estimated_diameter": {
        "kilometers": {
            "estimated_diameter_min": 0.0530340723,
            "estimated_diameter_max": 0.1185877909
        },
        "meters": {
            "estimated_diameter_min": 53.0340723319,
            "estimated_diameter_max": 118.5877908577
        },
        "miles": {
            "estimated_diameter_min": 0.0329538346,
            "estimated_diameter_max": 0.0736870142
        },
        "feet": {
            "estimated_diameter_min": 173.9963058693,
            "estimated_diameter_max": 389.0675677576
        }
    },
    "is_potentially_hazardous_asteroid": false,
    "close_approach_data": [
        {
            "close_approach_date": "2019-08-24",
            "close_approach_date_full": "2019-Aug-24 10:47",
            "epoch_date_close_approach": 1566643620000,
            "relative_velocity": {
                "kilometers_per_second": "13.7048777431",
                "kilometers_per_hour": "49337.5598749933",
                "miles_per_hour": "30656.4410234368"
            },
            "miss_distance": {
                "astronomical": "0.0742596764",
                "lunar": "28.8870141196",
                "kilometers": "11109089.416329268",
                "miles": "6902868.0730611784"
            },
            "orbiting_body": "Earth"
        }
    ],
    "orbital_data": {
        "orbit_id": "5",
        "orbit_determination_date": "2020-09-22 06:45:11",
        "first_observation_date": "2019-08-09",
        "last_observation_date": "2019-08-20",
        "data_arc_in_days": 11,
        "observations_used": 41,
        "orbit_uncertainty": "8",
        "minimum_orbit_intersection": ".0742845",
        "jupiter_tisserand_invariant": "2.817",
        "epoch_osculation": "2458706.5",
        "eccentricity": ".6761154639021075",
        "semi_major_axis": "3.006947039941294",
        "inclination": "14.13861674534598",
        "ascending_node_longitude": "318.727697441353",
        "orbital_period": "1904.526831760987",
        "perihelion_distance": ".9739036471023169",
        "perihelion_argument": "49.74398409734352",
        "aphelion_distance": "5.039990432780272",
        "perihelion_time": "2458749.649067175633",
        "mean_anomaly": "351.8438197224741",
        "mean_motion": ".1890233279975018",
        "equinox": "J2000",
        "orbit_class": {
            "orbit_class_type": "APO",
            "orbit_class_description": "Near-Earth asteroid orbits which cross the Earth’s orbit similar to that of 1862 Apollo",
            "orbit_class_range": "a (semi-major axis) > 1.0 AU; q (perihelion) < 1.017 AU"
        }
    },
    "is_sentry_object": false
}